IRIDIUM 119             
1 42959U 17061E   23270.55322910  .00000209  00000+0  67642-4 0  9994
2 42959  86.3916  80.5027 0002199  83.0466 277.0980 14.34221387312390
IRIDIUM 107             
1 42960U 17061F   23270.50248833  .00000211  00000+0  68405-4 0  9993
2 42960  86.3915  80.5391 0002017  83.6403 276.5022 14.34216802312398
IRIDIUM 132             
1 42961U 17061G   23270.50883449  .00000206  00000+0  66557-4 0  9992
2 42961  86.3916  80.5226 0002141  83.6411 276.5029 14.34220905312390
IRIDIUM 136             
1 42962U 17061H   23270.54053954  .00000198  00000+0  63796-4 0  9999
2 42962  86.3916  80.5115 0002353  88.7371 271.4094 14.34220004312413
IRIDIUM 139             
1 42963U 17061J   23270.54688609  .00000207  00000+0  66753-4 0  9998
2 42963  86.3918  80.5552 0002045  84.8432 275.2997 14.34217672312426
IRIDIUM 125             
1 42964U 17061K   23270.53420182  .00000456  00000+0  15570-3 0  9994
2 42964  86.3918  80.6031 0002151  82.0077 278.1363 14.34217876312439
IRIDIUM 135             
1 43070U 17083A   23270.36878573  .00000573  00000+0  19749-3 0  9991
2 43070  86.4022  17.3560 0001909 100.9645 259.1766 14.34219123301701
IRIDIUM 138             
1 43071U 17083B   23270.53369626  .00000556  00000+0  19151-3 0  9993
2 43071  86.4013  17.0379 0002233  89.0469 271.0982 14.34215557301710
